{"fetched_at":"2026-04-05T12:57:33Z","count":17389,"tles":[{"name":"UNKNOWN","line1":"1 81749U          26094.01242876  .00000139  00000+0  60380-3 0  9992","line2":"2 81749  99.6724 112.8053 0367479 324.7398  63.2015 12.77646364576348","category":"Other"},{"name":"UNKNOWN","line1":"1 81775U          26093.54152607  .00009426  00000+0  28325-2 0  9990","line2":"2 81775  82.9175 131.5109 0014302 248.4298 111.5372 14.42535610641382","category":"Other"},{"name":"UNKNOWN","line1":"1 81779U          26093.23242914  .00002370  00000+0  16394+0 0  9992","line2":"2 81779  54.4618  43.4370 1439520 149.0612 220.3591  9.33761831490736","category":"Other"},{"name":"UNKNOWN","line1":"1 81792U          26093.54917711  .00003526  00000+0  12405-2 0  9991","line2":"2 81792  65.8326 204.5237 0894875 233.0940 118.4837 13.11448336 94698","category":"Other"},{"name":"UNKNOWN","line1":"1 81812U          26093.74288308  .00008019  00000+0  51107-1 0  9992","line2":"2 81812 103.7974  24.8195 0327235  42.9343 319.6768 12.38618266554422","category":"Other"},{"name":"UNKNOWN","line1":"1 81816U          26094.29911384  .00002023  00000+0  15247-2 0  9999","line2":"2 81816  66.2389  15.4195 0168716 183.1618 176.8406 13.89817222624986","category":"Other"},{"name":"UNKNOWN","line1":"1 81819U          26094.22617393  .00000987  00000+0  69734-2 0  9995","line2":"2 81819 102.1686 197.9690 0035449 256.9002 102.8108 12.47896904562040","category":"Other"},{"name":"UNKNOWN","line1":"1 81824U          26094.51216748  .00006429  00000+0  21745-2 0  9999","line2":"2 81824  65.8440  29.0544 0049020 280.9043  78.6538 14.36763553640782","category":"Other"},{"name":"UNKNOWN","line1":"1 81833U          26090.00495833  .00000416  00000+0  14820-2 0  9999","line2":"2 81833  90.2483   5.3018 0028252  97.0860 263.3472 12.93780027466515","category":"Other"},{"name":"UNKNOWN","line1":"1 81693U          26093.57700998  .00001834  00000+0  13158-1 0  9996","line2":"2 81693 101.1021 147.8036 0384903 230.2534 126.4018 12.26145127981472","category":"Other"},{"name":"UNKNOWN","line1":"1 81838U          26093.11241755  .00008715  00000+0  18607-2 0  9998","line2":"2 81838  67.7608 334.7650 0043546 264.8935 246.6464 14.58622573649566","category":"Other"},{"name":"UNKNOWN","line1":"1 81745U          26094.40653864  .00003378  00000+0  10657-2 0  9993","line2":"2 81745  70.9991 140.7846 0003889   3.3668 356.7493 14.40996057645979","category":"Other"}]}